#dP2023 11  7 12  0  0.00000000      96 __u+U IGS20 EXT  IAC
## 2287 216000.00000000   900.00000000 60255 0.5000000000000
+  118   C06C07C08C09C10C11C12C13C14C16C19C20C21C22C23C24C25
+        C26C27C28C29C30C32C33C34C35C36C37C38C39C40C41C42C43
+        C44C45C46E02E03E04E05E07E08E09E10E11E12E13E15E19E21
+        E24E25E26E27E30E31E33E34E36G01G02G03G04G05G06G07G08
+        G09G10G11G12G13G14G15G16G17G18G19G20G21G22G23G24G25
+        G26G27G28G29G30G31G32J02J03J04R01R02R03R04R05R07R08
+        R09R11R12R13R14R15R16R17R18R19R20R21R22R24R25R26  0
++        10  9  9 10  9 10  9  8 11  9  7  8  8  8  8  7  9
++         8 10  8  6  9  9 10  6  8  9  8 10 12 11  9  8  8
++         9  8  6  9  6  7  6  6  5  7  8  9  8  7  6  6  9
++         7  8  7  9  7  9  6  6  8  7  0  7  6  8  6  0  7
++         6  7  8  6  7  7  5  9  8  6  6  5  7  6  6  7  6
++         7  7  4  6  6  7  6 10  8 10  9  9  7  6  8  7  7
++         7  8  9 10  6  7  9  8  7  9  8  6  8  9  9  9  0
%c M  cc GPS ccc cccc cccc cccc cccc ccccc ccccc ccccc ccccc
%c cc cc ccc ccc cccc cccc cccc cccc ccccc ccccc ccccc ccccc
%f  0.0000000  0.000000000  0.00000000000  0.000000000000000
%f  0.0000000  0.000000000  0.00000000000  0.000000000000000
%i    0    0    0    0      0      0      0      0         0
%i    0    0    0    0      0      0      0      0         0
/* IAC                                ULTRA-RAPID PREDICTION
/* S/V CLOCKS ARE ALIGNED TO GNSS TIME                      
/* G:C1WC2W R:C1PC2P E:C1XC5X C:C2IC6I J:C1CC2S             
/* PCV:IGS20_2280 OL/AL:FES2004  NONE     YN ORB:CoN CLK:CoN
*  2023 11 08  1 45  0.00000000
PC06  -9615.065521  40919.320751   4884.362642     12.995188
PC07  -5761.435040  27691.484756 -31152.495409   -283.497524
PC08 -19060.079156  25239.917302  27760.788508    253.110603
PC09  -5525.620612  41933.062240  -3589.312019    -60.510600
PC10   3473.346276  30297.588063 -28599.654809     -9.123317
PC11 -15201.930221  -9963.520806 -21105.695708    244.640907
PC12  -8301.760078 -25525.770969  -7610.120631    867.253379
PC13 -11882.051638  26290.260649  30785.251455    379.393869
PC14 -26377.651195  -9014.501717   1810.139025    740.383139
PC16 -12173.439461  39529.332102   9266.007556   -164.471044
PC19  25635.018412   2247.207522 -10761.739436   -973.697667
PC20  23669.919281  13564.988172   5818.180354    136.032815
PC21  -7148.193818 -17688.682463 -20365.432770   -969.193807
PC22  12946.744615 -11031.801337 -22130.173694   -234.146735
PC23 -20219.781374  18966.291778  -3145.447732   -826.243170
PC24 -13260.862112 -10079.125098  22371.505199    574.288222
PC25 -23536.122760   7533.112349  12929.816935    250.658775
PC26   3613.786718 -20458.907158  18630.642911   -203.051380
PC27   3309.038032  27702.877760   -758.628473    224.913305
PC28  -7959.210131  21740.374512 -15567.890640    169.611926
PC29  15984.533201  -1538.315183  22821.653806    198.389370
PC30  13951.945819  19132.127289  14776.967896     -7.927665
PC32   7123.559260  17628.674688  20430.705899   -533.514191
PC33 -25702.998115  -2154.842691  10660.244725   -946.509390
PC34 -14485.235543 -17833.085262 -15835.829308    298.531678
PC35   7130.518472 -22094.552284  15452.462487    507.804417
PC36  23551.718588  -6271.352996 -13585.825473   -144.158187
PC37  -4724.151416  20554.649405 -18251.498864   -878.917721
PC38 -25136.119686  26730.111830  20649.675651    116.278211
PC39 -12312.886139  38059.436684  13765.109265     -5.577931
PC40  -9324.987584  21963.282523 -34715.797796    -43.139890
PC41 -13682.178562  10676.311519  21899.315120   -871.394440
PC42 -22912.171788 -14210.977669  -7204.997476   -503.974691
PC43 -16243.293671    505.810160 -22689.996775     47.320715
PC44  -4249.972494 -27550.589258    911.769541    286.014500
PC45  19972.203393 -19158.022341   3697.800334    -43.977371
PC46  14197.202958   9033.214597 -22274.273943    -98.031696
PE02  29468.789493   -806.761494  -2792.223365     76.591109
PE03  21194.609451   5568.309655 -19905.964490    -71.951276
PE04 -10527.705452  14011.214472  23853.216726   -252.426758
PE05  19517.855375  21807.373835  -4447.966948     35.257182
PE07  -6032.448933 -25325.329178 -14094.087589    -86.618826
PE08  10823.965106 -13462.977129 -24045.094608   -173.603406
PE09   6004.910759  25227.962162  14255.892807   -219.788853
PE10 -11853.209673  27111.542584    466.111222   -577.184427
PE11  -4717.556428  27185.093844  10719.626425   3183.272492
PE12 -16585.783927  22913.860429  -8732.474479   -768.028370
PE13   5245.791491 -27332.594320 -10073.941960    -19.605238
PE15  16713.868800 -22627.048828   9225.741225    -67.676345
PE19 -21588.158054  -8181.086487  18521.644846  -1260.720502
PE21 -20295.503842 -10899.549045  18584.732437   -563.030474
PE24  -1731.089910  16962.441982 -24205.925460   -419.456385
PE25  19988.902632  11082.784399 -18807.659694     -3.655580
PE26  -9691.226272 -15430.245963 -23320.256059    274.477860
PE27   1116.550664 -16893.345801  24285.050112   -194.377489
PE30  21942.606499 -12662.879780  15315.637309   -644.187411
PE31 -21607.037216  12858.891322 -15604.449944     -9.626764
PE33 -18086.688323   4082.690724 -23062.386588      1.898298
PE34  18227.965258  -4799.329036  22827.889490    -76.735503
PE36   9122.421389  15978.214618  23194.127044   -140.962024
PG01  14571.221969 -21041.888833   6044.772892    163.208290
PG02  15789.494682 -17138.140846  13065.395612   -531.872515
PG03  17908.854592 -12074.433904 -15528.401934    -28.800613
PG04      0.000000      0.000000      0.000000    206.766424
PG05 -25829.802704   5637.964181   2856.010182   -149.539806
PG06      0.000000      0.000000      0.000000    511.657189
PG07   3268.985300 -24292.739822  10073.777640     19.284752
PG08  14127.076291  -6478.342100  21493.782261   -151.009159
PG09      0.000000      0.000000      0.000000     -9.477274
PG10  15014.434603  11375.092268  19047.183229    -60.509512
PG11 -16537.464300    744.135648 -20737.205279   -450.515787
PG12      0.000000      0.000000      0.000000   -444.594624
PG13 -17338.146102  -4440.171805  19493.705616    592.860831
PG14 -11134.815757 -13642.103963  19955.352587    236.945303
PG15      0.000000      0.000000      0.000000     94.942136
PG16  26707.719242   1376.470024  -2220.991907   -425.907927
PG17 -12544.498775 -23252.201362   2347.780683    723.445675
PG18  -2907.169227  23755.246165  11328.703265   -472.679774
PG19      0.000000      0.000000      0.000000    395.872401
PG20      0.000000      0.000000      0.000000    402.760534
PG21  16458.578184 -13575.103534  15709.778530    144.839428
PG22 -17257.612053 -11626.150338  16789.416966     88.013418
PG23   1165.774063  14841.648695  22003.391438     95.266611
PG24 -14998.243134  18565.075957  10801.156573   -365.941215
PG25      0.000000      0.000000      0.000000    476.403289
PG26  23551.105318   4885.918193 -11788.078370    218.149352
PG27  19408.003899   7408.197377  16528.691837    -66.817163
PG28      0.000000      0.000000      0.000000    -41.355729
PG29      0.000000      0.000000      0.000000   -610.233358
PG30  -4904.230246 -19588.491210  17241.222949   -470.574750
PG31  14981.582343   4366.154642 -21718.411403   -225.519760
PG32  16372.930351  21001.210920  -1352.051953   -583.039208
PJ02 -32538.897395  16703.228793 -16301.507613     -0.114122
PJ03 -22133.273940  31425.746608 -12709.706963     -7.504688
PJ04 -27418.509516  26212.070963  24370.730495     72.078082
PR01   4151.836926 -10272.506667 -22981.533920     69.343687
PR02 -12522.075598 -16298.784031 -15018.951640    -22.355874
PR03 -21959.508675 -12817.995859   1577.492598     88.607034
PR04 -18913.203250  -2710.904052  16910.832915    210.157365
PR05  -5796.569234   9043.838476  23140.479430    121.884945
PR07  22120.757160  12546.009291  -2315.428015     68.636438
PR08  18917.879172   2449.206918 -16903.909215    -73.196417
PR09    599.416533  12373.945820 -22290.606281    152.009016
PR11  22888.681464  -8892.112649  -6868.983056   -211.599398
PR12  16255.494529 -15444.824832  12199.956994     33.194055
PR13   1849.972188 -13025.708900  21839.219131    -41.055153
PR14 -16303.131318  -1856.793266  19546.926243     25.525338
PR15 -23055.439317   9430.197656   5521.392802     84.890092
PR16 -16445.183403  15446.381467 -11924.216382     20.423181
PR17  -8968.684818 -11904.581598 -20699.576589     32.896849
PR18 -10434.270025   6208.740304 -22418.180140    110.860534
PR19  -7826.217624  19879.523303 -13921.674539   -253.841508
PR20    912.773576  24641.051160   6612.659792   -103.146657
PR21   9007.259710  11155.608373  21094.424410    -51.691258
PR22  10979.580781  -6875.799024  22002.937454     92.480351
PR24  -2252.359454 -24412.440686  -7063.880468    -31.286947
PR25   8751.904493  12212.188709  20616.195232     -6.347710
PR26  19198.274898   2691.726652 -16553.532808    -17.635920
EOF
